{
  "type": "Feature",
  "properties": {
    "name": "Kallapuram field",
    "district": "Tiruchirappalli",
    "state": "Tamil Nadu",
    "crs_source": "EPSG:32643",
    "citation": "Field boundary surveyed for FarmSync demo (Kallapuram_Actual.geojson)"
  },
  "geometry": {
    "type": "Polygon",
    "coordinates": [
      [
        [
          77.30452683760231,
          10.428859498008162
        ],
        [
          77.30452659640771,
          10.429019068413671
        ],
        [
          77.30451980377701,
          10.429186301286801
        ],
        [
          77.30450886897567,
          10.429315895024818
        ],
        [
          77.30449639995663,
          10.429463671573519
        ],
        [
          77.30448949129533,
          10.429853365855314
        ],
        [
          77.30448240451925,
          10.430035186227373
        ],
        [
          77.30448291853509,
          10.430114123871158
        ],
        [
          77.30433770848204,
          10.430236882265984
        ],
        [
          77.30420116648224,
          10.430352312689253
        ],
        [
          77.30412815637516,
          10.430415272040106
        ],
        [
          77.30412013544394,
          10.430413621083051
        ],
        [
          77.30411378509449,
          10.430382908571843
        ],
        [
          77.3041063697534,
          10.430313777672264
        ],
        [
          77.30410820850659,
          10.430290662948078
        ],
        [
          77.30411219946124,
          10.430269071319632
        ],
        [
          77.30412712687124,
          10.430241933251468
        ],
        [
          77.304142895231,
          10.430220665722313
        ],
        [
          77.30414747388743,
          10.430198245171965
        ],
        [
          77.30414355720545,
          10.430162730868235
        ],
        [
          77.30413119672693,
          10.430089254051673
        ],
        [
          77.30412957925115,
          10.42999964826357
        ],
        [
          77.30412806689725,
          10.429915865745325
        ],
        [
          77.3041130089155,
          10.429796105367902
        ],
        [
          77.30409977101311,
          10.42965819254447
        ],
        [
          77.3040963371705,
          10.429538077753067
        ],
        [
          77.30408604775668,
          10.429361575908706
        ],
        [
          77.30407766751006,
          10.42927433290812
        ],
        [
          77.30406881283653,
          10.429242371437958
        ],
        [
          77.30404096488726,
          10.42919511040826
        ],
        [
          77.30401822684013,
          10.429127160789422
        ],
        [
          77.30399348067402,
          10.429040458373866
        ],
        [
          77.30397249050675,
          10.428971140809697
        ],
        [
          77.3039535170648,
          10.42890282633038
        ],
        [
          77.30395086166651,
          10.428892788103719
        ],
        [
          77.30395074970822,
          10.42887757071776
        ],
        [
          77.30396457524735,
          10.428820718332078
        ],
        [
          77.30398306905676,
          10.428751659915905
        ],
        [
          77.3039926015673,
          10.42873535850525
        ],
        [
          77.30400816784086,
          10.428722833053165
        ],
        [
          77.30401886251491,
          10.428718525868657
        ],
        [
          77.30405190758293,
          10.42872908511288
        ],
        [
          77.30410843961775,
          10.428758489925041
        ],
        [
          77.30416128172911,
          10.428772834786098
        ],
        [
          77.3042739854703,
          10.428807514473933
        ],
        [
          77.30438810193709,
          10.428841218058038
        ],
        [
          77.30452683760231,
          10.428859498008162
        ]
      ]
    ]
  },
  "centroid": {
    "lat": 10.429483944881238,
    "lon": 77.30417256837138
  },
  "bounds": {
    "south": 10.428718525868657,
    "west": 77.30395074970822,
    "north": 10.430415272040106,
    "east": 77.30452683760231
  }
}